{
    "type": "FeatureCollection",
    "features": [
        {
            "type": "Feature",
            "geometry": {
                "type": "Polygon",
                "coordinates": [
                    [
                        [32.707329, 14.344309],
                        [32.694025, 14.343727],
                        [32.698145, 14.33433],
                        [32.71059, 14.334746],
                        [32.707329, 14.344309]
                    ]
                ]
            },
            "properties": {
                "label": "Cultivated"
            }
        },
        {
            "type": "Feature",
            "geometry": {
                "type": "Polygon",
                "coordinates": [
                    [
                        [32.721663, 14.362104],
                        [32.70484, 14.316866],
                        [32.755651, 14.30988],
                        [32.721663, 14.362104]
                    ]
                ]
            },
            "properties": {
                "label": "Cultivated"
            }
        },
        {
            "type": "Feature",
            "geometry": {
                "type": "Polygon",
                "coordinates": [
                    [
                        [32.703724, 14.369836],
                        [32.692566, 14.366677],
                        [32.696171, 14.358861],
                        [32.702694, 14.354204],
                        [32.709045, 14.353207],
                        [32.71368, 14.356366],
                        [32.717285, 14.363351],
                        [32.712994, 14.368007],
                        [32.709217, 14.370335],
                        [32.703724, 14.369836]
                    ]
                ]
            },
            "properties": {
                "label": "Uncultivated"
            }
        },
        {
            "type": "Feature",
            "geometry": {
                "type": "Polygon",
                "coordinates": [
                    [
                        [32.736683, 14.355867],
                        [32.738914, 14.362852],
                        [32.741489, 14.362852],
                        [32.744064, 14.362852],
                        [32.745008, 14.359194],
                        [32.745953, 14.355535],
                        [32.736683, 14.355867]
                    ]
                ]
            },
            "properties": {
                "label": "Uncultivated"
            }
        }
    ]
}
